OBJECT_NAME,OBJECT_ID,EPOCH,MEAN_MOTION,ECCENTRICITY,INCLINATION,RA_OF_ASC_NODE,ARG_OF_PERICENTER,MEAN_ANOMALY,EPHEMERIS_TYPE,CLASSIFICATION_TYPE,NORAD_CAT_ID,ELEMENT_SET_NO,REV_AT_EPOCH,BSTAR,MEAN_MOTION_DOT,MEAN_MOTION_DDOT
STARLINK-32354,2024-207W,2026-07-02T13:01:26.780448,15.27571146,.00012543,43.0010,356.8872,245.4289,114.6432,0,U,61932,999,9273,.34000443E-3,.9103E-4,0
STARLINK-32361,2024-207X,2026-07-02T14:38:09.148704,15.27558247,.0001607,43.0010,353.0559,261.6781,98.3889,0,U,61933,999,9229,.55280254E-3,.14971E-3,0
STARLINK-32500,2024-207Z,2026-07-02T12:44:48.079392,15.27526025,.00011224,43.0008,356.8041,244.8444,115.2291,0,U,61935,999,9224,.61716573E-3,.16732E-3,0
STARLINK-11407 [DTC],2024-209A,2026-07-02T05:56:56.451840,15.69676600,.00013368,53.1582,166.3070,70.7957,289.3205,0,U,61939,999,9473,.12891577E-2,.158387E-2,0
STARLINK-11337 [DTC],2024-209B,2026-07-02T05:49:52.529376,15.69706730,.0002383,53.1574,166.2743,87.6178,272.5112,0,U,61940,999,9471,.13271877E-2,.163388E-2,0
STARLINK-11353 [DTC],2024-209C,2026-07-02T05:42:48.765024,15.69687390,.00013207,53.1575,166.2419,56.5195,303.5949,0,U,61941,999,9467,.10044461E-2,.122799E-2,0
STARLINK-11320 [DTC],2024-209D,2026-07-02T07:07:34.955904,15.69712293,.00011015,53.1567,166.6309,69.5363,290.5773,0,U,61942,999,9467,.13134682E-2,.161689E-2,0
STARLINK-11425 [DTC],2024-209E,2026-07-02T13:07:15.439872,15.69707520,.00011432,53.1575,165.3424,75.3417,284.7728,0,U,61943,999,9471,.72762229E-3,.88497E-3,0
STARLINK-11422 [DTC],2024-209F,2026-07-02T05:21:45.421632,15.69708960,.00009452,53.1574,166.8781,95.2493,264.8633,0,U,61944,999,9466,.38783065E-3,.46659E-3,0
STARLINK-11421 [DTC],2024-209G,2026-07-02T09:49:45.725664,15.69732364,.00015823,53.1567,165.9037,106.6873,253.4319,0,U,61945,999,9469,.188202E-2,.234184E-2,0
STARLINK-11410 [DTC],2024-209H,2026-07-02T06:39:21.444192,15.69679312,.00008898,53.1577,166.4986,90.4762,269.6358,0,U,61946,999,9471,.17575443E-2,.21774E-2,0
STARLINK-11390 [DTC],2024-209J,2026-07-02T06:32:16.027008,15.69699369,.00012073,53.1568,166.4681,81.0013,279.1142,0,U,61947,999,9471,.12096923E-2,.14855E-2,0
STARLINK-11414 [DTC],2024-209K,2026-07-02T06:04:00.289632,15.69690886,.0001376,53.1569,166.3350,73.9249,286.1920,0,U,61948,999,9471,.18481912E-2,.229435E-2,0
STARLINK-11424 [DTC],2024-209L,2026-07-02T06:11:04.116192,15.69679323,.00012977,53.1578,166.3688,100.6229,259.4935,0,U,61949,999,9467,.13360272E-2,.164303E-2,0
STARLINK-11423 [DTC],2024-209M,2026-07-02T03:21:49.171680,15.69744096,.00010958,53.1570,167.0640,51.7072,308.4044,0,U,61950,999,9469,.13675362E-2,.168736E-2,0
STARLINK-11395 [DTC],2024-209N,2026-07-02T04:46:26.748480,15.69679555,.00015987,53.1568,166.7135,30.7482,329.3629,0,U,61951,999,9466,.15438314E-2,.190561E-2,0
STARLINK-32572,2024-209P,2026-07-02T03:31:09.969024,15.30268931,.00010655,53.1616,330.5608,79.8509,280.2612,0,U,61952,999,9242,.14283825E-2,.42277E-3,0
STARLINK-32585,2024-209Q,2026-07-02T15:43:27.616800,15.49354636,.00010315,53.1591,321.6374,95.1123,265.0003,0,U,61953,999,9259,.14184058E-2,.79371E-3,0
STARLINK-32574,2024-209R,2026-07-02T15:40:02.697600,15.49341241,.00011792,53.1595,321.6213,91.1040,269.0104,0,U,61954,999,9261,.87736072E-3,.48707E-3,0
STARLINK-32583,2024-209S,2026-06-29T23:15:52.417152,15.49071061,.00012254,53.1597,334.0247,40.5006,319.6094,0,U,61955,999,9219,-.20974963E-2,-.114451E-2,0
STARLINK-32273,2024-209T,2026-07-01T19:48:29.558304,15.30273567,.00001696,53.1604,332.1061,45.1778,314.9236,0,U,61956,999,9237,.14440477E-2,.42754E-3,0
STARLINK-32359,2024-209U,2026-07-02T14:00:01.999872,15.40304976,.00011396,53.1592,321.5159,83.2276,110.0923,0,U,61957,999,582,-.38846352E-1,-.1441778E-1,0
STARLINK-32566,2024-209V,2026-07-02T14:00:01.999872,15.34392843,.00010853,53.1593,321.5169,69.6337,124.8859,0,U,61958,999,567,-.3130371E-3,-.10935E-3,0
STARLINK-32499,2024-210A,2026-07-02T13:36:48.595104,15.27606962,.00017563,42.9999,250.6607,265.6224,94.4427,0,U,61959,999,9249,.54800898E-3,.14861E-3,0
STARLINK-32372,2024-210B,2026-07-02T13:47:55.873536,15.27581204,.00019341,43.0008,250.7178,260.2211,99.8422,0,U,61960,999,9235,.22493713E-3,.5933E-4,0
STARLINK-32452,2024-210C,2026-07-02T14:02:16.996416,15.27589107,.0001641,42.9988,243.8722,272.7376,87.3288,0,U,61961,999,9256,.9168516E-3,.25061E-3,0
STARLINK-32458,2024-210D,2026-07-02T11:52:30.875520,15.27595811,.00013868,42.9980,237.1276,276.5125,83.5569,0,U,61962,999,9263,.79447548E-3,.21675E-3,0
STARLINK-32487,2024-210E,2026-07-02T14:30:29.645856,15.27581986,.00015194,42.9989,250.9356,265.4177,94.6501,0,U,61963,999,9248,.73486039E-3,.20016E-3,0
STARLINK-32513,2024-210F,2026-07-02T13:10:01.009920,15.27594739,.00014295,42.9982,236.6794,297.0456,63.0250,0,U,61964,999,9264,.68758826E-3,.18715E-3,0
