STARLINK-32354          
1 61932U 24207W   26183.54267107  .00009103  00000+0  34000-3 0  9990
2 61932  43.0010 356.8872 0001254 245.4289 114.6432 15.27571146 92737
STARLINK-32361          
1 61933U 24207X   26183.60982811  .00014971  00000+0  55280-3 0  9996
2 61933  43.0010 353.0559 0001607 261.6781  98.3889 15.27558247 92290
STARLINK-32500          
1 61935U 24207Z   26183.53111203  .00016732  00000+0  61717-3 0  9998
2 61935  43.0008 356.8041 0001122 244.8444 115.2291 15.27526025 92247
STARLINK-11407 [DTC]    
1 61939U 24209A   26183.24787560  .00158387  00000+0  12892-2 0  9999
2 61939  53.1582 166.3070 0001336  70.7957 289.3205 15.69676600 94733
STARLINK-11337 [DTC]    
1 61940U 24209B   26183.24296909  .00163388  00000+0  13272-2 0  9993
2 61940  53.1574 166.2743 0002383  87.6178 272.5112 15.69706730 94714
STARLINK-11353 [DTC]    
1 61941U 24209C   26183.23806441  .00122799  00000+0  10044-2 0  9996
2 61941  53.1575 166.2419 0001320  56.5195 303.5949 15.69687390 94678
STARLINK-11320 [DTC]    
1 61942U 24209D   26183.29693236  .00161689  00000+0  13135-2 0  9994
2 61942  53.1567 166.6309 0001101  69.5363 290.5773 15.69712293 94671
STARLINK-11425 [DTC]    
1 61943U 24209E   26183.54670648  .00088497  00000+0  72762-3 0  9992
2 61943  53.1575 165.3424 0001143  75.3417 284.7728 15.69707520 94713
STARLINK-11422 [DTC]    
1 61944U 24209F   26183.22344238  .00046659  00000+0  38783-3 0  9990
2 61944  53.1574 166.8781 0000945  95.2493 264.8633 15.69708960 94666
STARLINK-11421 [DTC]    
1 61945U 24209G   26183.40955701  .00234184  00000+0  18820-2 0  9995
2 61945  53.1567 165.9037 0001582 106.6873 253.4319 15.69732364 94693
STARLINK-11410 [DTC]    
1 61946U 24209H   26183.27733153  .00217740  00000+0  17575-2 0  9991
2 61946  53.1577 166.4986 0000889  90.4762 269.6358 15.69679312 94718
STARLINK-11390 [DTC]    
1 61947U 24209J   26183.27240772  .00148550  00000+0  12097-2 0  9998
2 61947  53.1568 166.4681 0001207  81.0013 279.1142 15.69699369 94712
STARLINK-11414 [DTC]    
1 61948U 24209K   26183.25278113  .00229435  00000+0  18482-2 0  9993
2 61948  53.1569 166.3350 0001376  73.9249 286.1920 15.69690886 94711
STARLINK-11424 [DTC]    
1 61949U 24209L   26183.25768653  .00164303  00000+0  13360-2 0  9999
2 61949  53.1578 166.3688 0001297 100.6229 259.4935 15.69679323 94671
STARLINK-11423 [DTC]    
1 61950U 24209M   26183.14015245  .00168736  00000+0  13675-2 0  9994
2 61950  53.1570 167.0640 0001095  51.7072 308.4044 15.69744096 94697
STARLINK-11395 [DTC]    
1 61951U 24209N   26183.19892070  .00190561  00000+0  15438-2 0  9999
2 61951  53.1568 166.7135 0001598  30.7482 329.3629 15.69679555 94665
STARLINK-32572          
1 61952U 24209P   26183.14664316  .00042277  00000+0  14284-2 0  9993
2 61952  53.1616 330.5608 0001065  79.8509 280.2612 15.30268931 92428
STARLINK-32585          
1 61953U 24209Q   26183.65518075  .00079371  00000+0  14184-2 0  9994
2 61953  53.1591 321.6374 0001031  95.1123 265.0003 15.49354636 92599
STARLINK-32574          
1 61954U 24209R   26183.65280900  .00048707  00000+0  87736-3 0  9991
2 61954  53.1595 321.6213 0001179  91.1040 269.0104 15.49341241 92610
STARLINK-32583          
1 61955U 24209S   26180.96935668 -.00114451  00000+0 -20975-2 0  9994
2 61955  53.1597 334.0247 0001225  40.5006 319.6094 15.49071061 92193
STARLINK-32273          
1 61956U 24209T   26182.82534211  .00042754  00000+0  14440-2 0  9995
2 61956  53.1604 332.1061 0000169  45.1778 314.9236 15.30273567 92370
STARLINK-32359          
1 61957U 24209U   26183.58335648 -.01441778  00000+0 -38846-1 0  9990
2 61957  53.1592 321.5159 0001139  83.2276 110.0923 15.40304976  5823
STARLINK-32566          
1 61958U 24209V   26183.58335648 -.00010935  00000+0 -31304-3 0  9991
2 61958  53.1593 321.5169 0001085  69.6337 124.8859 15.34392843  5679
STARLINK-32499          
1 61959U 24210A   26183.56722911  .00014861  00000+0  54801-3 0  9992
2 61959  42.9999 250.6607 0001756 265.6224  94.4427 15.27606962 92494
STARLINK-32372          
1 61960U 24210B   26183.57495224  .00005933  00000+0  22494-3 0  9992
2 61960  43.0008 250.7178 0001934 260.2211  99.8422 15.27581204 92358
STARLINK-32452          
1 61961U 24210C   26183.58491894  .00025061  00000+0  91685-3 0  9995
2 61961  42.9988 243.8722 0001641 272.7376  87.3288 15.27589107 92562
STARLINK-32458          
1 61962U 24210D   26183.49480180  .00021675  00000+0  79448-3 0  9992
2 61962  42.9980 237.1276 0001386 276.5125  83.5569 15.27595811 92632
STARLINK-32487          
1 61963U 24210E   26183.60450979  .00020016  00000+0  73486-3 0  9993
2 61963  42.9989 250.9356 0001519 265.4177  94.6501 15.27581986 92486
STARLINK-32513          
1 61964U 24210F   26183.54862280  .00018715  00000+0  68759-3 0  9999
2 61964  42.9982 236.6794 0001429 297.0456  63.0250 15.27594739 92647
